OPS 6582 (TRANSIT 5B-5) 
1 00965U 64083D   21017.75048029  .00000008  00000-0 -11090-5 0  9992
2 00965  90.0172 194.0562 0039107 297.7769  72.9160 13.56750489776165
OSCAR 7 (AO-7)          
1 07530U 74089B   21017.51676865 -.00000039  00000-0  42075-4 0  9993
2 07530 101.8338 352.3065 0012134 313.4086 154.5784 12.53646944112812
UOSAT 2 (UO-11)         
1 14781U 84021B   21017.75526462  .00000069  00000-0  14495-4 0  9996
2 14781  97.5898  25.0492 0007645 208.1269 151.9534 14.83238010984594
NOAA 9                  
1 15427U 84123A   21017.82279628 -.00000008  00000-0  18881-4 0  9991
2 15427  98.9732 339.2806 0014657 184.7512 230.5913 14.16119288863866
LUSAT (LO-19)           
1 20442U 90005G   21017.59664470  .00000014  00000-0  21690-4 0  9995
2 20442  98.7219 331.8620 0010748 242.7446 117.2644 14.32973574619222
ITAMSAT (IO-26)         
1 22826U 93061D   21017.61163153 -.00000019  00000-0  10526-4 0  9995
2 22826  98.9183  31.3900 0009986 100.6306 259.6001 14.30441281424667
RADIO ROSTO (RS-15)     
1 23439U 94085A   21017.57506826 -.00000037  00000-0  15882-3 0  9995
2 23439  64.8176 259.9763 0156020   2.3492 357.8132 11.27570064 73327
JAS-2 (FO-29)           
1 24278U 96046B   21017.82648941  .00000004  00000-0  39133-4 0  9998
2 24278  98.5844 105.6606 0350441 179.6632 180.4808 13.53101965206122
NOAA 15                 
1 25338U 98030A   21017.79247819  .00000010  00000-0  22523-4 0  9998
2 25338  98.6986  47.5399 0010385   5.2570 354.8717 14.26008950179773
TECHSAT 1B (GO-32)      
1 25397U 98043D   21017.58724237 -.00000005  00000-0  17229-4 0  9990
2 25397  98.7545 323.6983 0001897 127.3435 232.7916 14.23699398170024
ISS (ZARYA)             
1 25544U 98067A   21017.90543098  .00000437  00000-0  15913-4 0  9996
2 25544  51.6468   6.0348 0000298 263.4064 181.3073 15.49297609265308
ORSTED                  
1 25635U 99008B   21017.82368004  .00000132  00000-0  38737-4 0  9997
2 25635  96.4552 357.6183 0139456  27.0265 333.8106 14.48256728155919
PHASE 3D (AO-40)        
1 26609U 00072B   21016.90015145 -.00000125  00000-0  00000-0 0  9996
2 26609   9.1868 346.7724 7935413 216.8077  46.5411  1.25586137 92687
PCSAT (NO-44)           
1 26931U 01043C   21017.51964595  .00000028  00000-0  42383-4 0  9998
2 26931  67.0525 309.9615 0007431 271.8921  88.1329 14.30603036  7651
SAUDISAT 1C (SO-50)     
1 27607U 02058C   21017.51977187  .00000001  00000-0  20385-4 0  9996
2 27607  64.5559  79.8668 0029353  88.5141 271.9324 14.75703044972305
CUTE-1 (CO-55)          
1 27844U 03031E   21017.57880115  .00000039  00000-0  37268-4 0  9990
2 27844  98.6816  28.0706 0010366 150.5979 209.5783 14.22282552910535
CUBESAT XI-IV (CO-57)   
1 27848U 03031J   21017.52729040  .00000027  00000-0  31935-4 0  9990
2 27848  98.6878  28.5879 0010038 162.9948 197.1568 14.21863260910366
MOZHAYETS 4 (RS-22)     
1 27939U 03042A   21017.84501995  .00000137  00000-0  33206-4 0  9990
2 27939  98.1177 156.2178 0013649  41.1514 319.0717 14.66933807925443
INMARSAT 4-F1           
1 28628U 05009A   21017.78108046 -.00000263  00000-0  00000+0 0  9996
2 28628   3.2827  29.4163 0002616 272.6315 240.0204  1.00271938 57854
NOAA 18                 
1 28654U 05018A   21017.78845201  .00000071  00000-0  62765-4 0  9993
2 28654  99.0161  81.9129 0013923 350.9455   9.1463 14.12573732807263
CUBESAT XI-V            
1 28895U 05043F   21017.84614632  .00000125  00000-0  32880-4 0  9992
2 28895  98.0358 154.5937 0015959 328.5734  31.4513 14.63854456812208
METOP-A                 
1 29499U 06044A   21017.86125715 -.00000007  00000-0  15971-4 0  9998
2 29499  98.4946  62.9764 0001282  71.0217 102.3384 14.21495658739342
CARTOSAT-2 (IRS-P7)     
1 29710U 07001B   21017.45993639  .00001350  00000-0  48467-4 0  9998
2 29710  97.8901  92.9481 0167265  49.9394 311.6372 15.18505273757709
FALCONSAT-3             
1 30776U 07006E   21017.31929924  .00003230  00000-0  81997-4 0  9992
2 30776  35.4355 350.4773 0003237 301.5337  58.5074 15.39328569769794
CAPE1                   
1 31130U 07012P   21017.82580976  .00000175  00000-0  47274-4 0  9995
2 31130  98.2208 318.8656 0097109  91.1854 270.0471 14.56619255730016
CARTOSAT-2A             
1 32783U 08021A   21017.84693307 -.00000177  00000-0 -17126-4 0  9993
2 32783  97.8950  80.1469 0013418  41.1754 319.0454 14.78703143686824
CUTE-1.7+APD II (CO-65) 
1 32785U 08021C   21017.50062738  .00000247  00000-0  32071-4 0  9998
2 32785  97.5948   2.3646 0013908 138.6209 221.6064 14.88612506689713
COMPASS-1               
1 32787U 08021E   21017.56764669  .00000178  00000-0  21818-4 0  9998
2 32787  97.5195  14.8073 0013816  76.2734 284.0024 14.93918752691001
AAUSAT-II               
1 32788U 08021F   21017.53984314  .00000937  00000-0  89740-4 0  9998
2 32788  97.4977  18.6153 0013049  60.9100 299.3427 14.95348059691303
DELFI-C3 (DO-64)        
1 32789U 08021G   21017.85869913  .00001568  00000-0  10462-3 0  9996
2 32789  97.3947  58.9336 0010500 303.8873  56.1356 15.08397947694224
SEEDS II (CO-66)        
1 32791U 08021J   21017.53101172  .00000368  00000-0  42244-4 0  9991
2 32791  97.5574   8.4345 0014655 107.2215 253.0609 14.91248656690280
YUBILEINY (RS-30)       
1 32953U 08025A   21017.72418722  .00000028  00000-0  12906-3 0  9992
2 32953  82.5048 144.6779 0018561 306.5413  53.3954 12.43099461574253
FENGYUN 3A              
1 32958U 08026A   21017.83516208  .00000005  00000-0  22223-4 0  9997
2 32958  98.4315 358.7233 0009854  77.1432 283.0845 14.18645062655227
PRISM (HITOMI)          
1 33493U 09002B   21017.58800175  .00000277  00000-0  29395-4 0  9996
2 33493  98.1697 333.0745 0015948  66.9669 293.3232 14.97377872651740
STARS (KUKAI)           
1 33498U 09002G   21017.62846456  .00000204  00000-0  34910-4 0  9997
2 33498  98.2347 254.2563 0012042 108.5727 251.6792 14.79261911645589
KKS-1 (KISEKI)          
1 33499U 09002H   21017.59857740  .00000095  00000-0  21875-4 0  9996
2 33499  98.2891 244.0021 0009515 155.1312 205.0357 14.75607475644167
NOAA 19                 
1 33591U 09005A   21017.80862078  .00000008  00000-0  29498-4 0  9999
2 33591  99.1928  34.7065 0013789 191.4121 168.6739 14.12448780615655
SWISSCUBE               
1 35932U 09051B   21017.49541580  .00000118  00000-0  37616-4 0  9991
2 35932  98.6067 212.6922 0007461 183.1208 176.9944 14.56477148600985
BEESAT-1                
1 35933U 09051C   21017.53607240  .00000097  00000-0  32875-4 0  9991
2 35933  98.6043 214.5902 0005423 193.6760 166.4291 14.56542458601060
ITUPSAT1                
1 35935U 09051E   21017.51939714  .00000087  00000-0  31170-4 0  9991
2 35935  98.6149 214.7397 0007737 196.8682 163.2259 14.55680593600810
XIWANG-1 (HOPE-1)       
1 36122U 09072B   21017.88944619 -.00000036  00000-0  17390-4 0  9996
2 36122 100.1131   4.9127 0008173  90.0571 270.1474 13.16358660533080
CARTOSAT-2B             
1 36795U 10035A   21017.74763768 -.00001427  00000-0 -18748-3 0  9995
2 36795  97.8915  79.4976 0015324 109.0735 251.2130 14.78666074567857
TISAT 1                 
1 36799U 10035E   21017.45337314  .00000527  00000-0  58690-4 0  9990
2 36799  98.2019 202.1641 0011983 354.5767   5.5319 14.91572248570828
FENGYUN 3B              
1 37214U 10059A   21017.89116618  .00000003  00000-0  25191-4 0  9998
2 37214  99.0692   9.1744 0017424  23.0307  33.1339 14.15972454528023
JUGNU                   
1 37839U 11058B   21017.53249667  .00000327  00000-0  32492-4 0  9994
2 37839  19.9625  64.4815 0018679 228.2303 282.9501 14.12700760479097
SRMSAT                  
1 37841U 11058D   21017.62909972  .00000301  00000-0  20363-4 0  9995
2 37841  19.9713 132.6534 0011998  76.5937  45.2069 14.10683238478409
M-CUBED & EXP-1 PRIME   
1 37855U 11061F   21017.54989012  .00001464  00000-0  78351-4 0  9999
2 37855 101.7265 222.6897 0168604 159.3149 201.4996 15.07094320503443
HORYU-2                 
1 38340U 12025D   21017.44530213  .00000176  00000-0  33446-4 0  9999
2 38340  98.2536  81.8454 0012667  80.0520 280.2118 14.75961451456112
METOP-B                 
1 38771U 12049A   21017.83016589 -.00000006  00000-0  17219-4 0  9994
2 38771  98.7020  80.0427 0002475  98.9997   8.9197 14.21483261432470
SARAL                   
1 39086U 13009A   21017.82019345 -.00000022  00000-0  79049-5 0  9991
2 39086  98.5411 206.1293 0001190  44.4123 315.7156 14.32042273412685
AAUSAT 3                
1 39087U 13009B   21017.79470905  .00000105  00000-0  51087-4 0  9993
2 39087  98.4340 224.3846 0012812   7.9788 352.1591 14.35888409413575
STRAND-1                
1 39090U 13009E   21017.53629254  .00000028  00000-0  24747-4 0  9999
2 39090  98.4365 223.1855 0009405  14.7121 345.4337 14.35164199413390
BRITE-AUSTRIA           
1 39091U 13009F   21017.52192099  .00000002  00000-0  15607-4 0  9998
2 39091  98.4362 222.3018 0010899  20.6868 339.4756 14.35171360413423
UNIBRITE                
1 39092U 13009G   21017.84592015  .00000005  00000-0  16903-4 0  9999
2 39092  98.4390 222.3078 0009651  15.2917 344.8558 14.35043188413448
SOMP                    
1 39134U 13015E   21017.21019858  .00001350  00000-0  67975-4 0  9992
2 39134  64.8633 304.0413 0012611 219.6412 140.3795 15.21881085428195
BEESAT-3                
1 39135U 13015F   21017.22700826  .00001082  00000-0  61158-4 0  9995
2 39135  64.8681 330.7470 0017786 208.3069 151.7093 15.18833085427671
BEESAT-2                
1 39136U 13015G   21017.22837223  .00001121  00000-0  63813-4 0  9992
2 39136  64.8743 336.5229 0029293 263.4635  96.3156 15.18210229427554
NEE-01 PEGASO           
1 39151U 13018B   21017.75741771  .00000170  00000-0  29241-4 0  9992
2 39151  97.9763 121.1719 0018160 124.2122 236.0814 14.80271766417383
CUBEBUG-1 (CAPITAN BETO)
1 39153U 13018D   21017.83343230  .00000221  00000-0  35507-4 0  9990
2 39153  97.9888 124.1050 0018113 119.8728 240.4287 14.80837919417510
